2004 PX117,e,3.7433,120.0625,75.2428,44.55102,0.0033145,0.09342601,131.0641,02/25.0/2023,2000,H 6.5,0.15
# From MPO649709
2004 PY117,e,23.3372,129.9415,154.0957,40.40620,0.0038374,0.28522468,41.2593,02/25.0/2023,2000,H 7.17,0.15
# From MPO713700
2004 QE29,e,24.0764,317.8134,357.7189,41.21184,0.0037254,0.08933798,26.9169,02/25.0/2023,2000,H 7.46,0.15
# From MPO315193
2004 QG29,e,27.0839,319.8448,335.0876,48.91755,0.0028808,0.23942755,34.0568,02/25.0/2023,2000,H 7.9,0.15
# From MPO331241
2004 QH29,e,11.9853,326.6282,19.3750,51.36730,0.0026772,0.23527224,3.6980,02/25.0/2023,2000,H 7.3,0.15
# From MPO 74424
2004 TW357,e,31.9582,43.1036,8.4517,39.51508,0.0039679,0.18941281,0.0270,10/22.0/2004,2000,H 7.8,0.15
# From MPO 74424
2004 TB358,e,1.7798,335.0320,64.9678,43.81067,0.0033989,0.07443113,0.0234,10/22.0/2004,2000,H 7.1,0.15
# From MPO473096
2004 UD10,e,3.4864,54.6871,214.1197,43.04907,0.0034895,0.03283175,160.1895,02/25.0/2023,2000,H 6.7,0.15
# From MPO 74426
2004 UE10,e,18.7267,46.7679,1.3549,39.44536,0.0039784,0.11431046,0.0152,10/22.0/2004,2000,H 7.7,0.15
# From MPO 74426
2004 UF10,e,5.3410,326.3269,83.4996,39.40932,0.0039839,0.12877221,0.0151,10/22.0/2004,2000,H 7.8,0.15
# From MPO434900
2004 US10,e,10.2652,14.0078,7.5088,39.89979,0.0039106,0.22582466,16.9012,02/25.0/2023,2000,H 9.3,0.15
# From MPO 87642
2004 UU10,e,2.2696,158.6330,211.7787,45.94855,0.0031644,0.00000000,0.1266,11/11.0/2004,2000,H 8.8,0.15
# From MPO 90213
2004 UW10,e,4.6265,35.3005,341.9681,39.45328,0.0039772,0.24908475,0.0994,11/11.0/2004,2000,H10.5,0.15
# From MPO686150
2004 VU75,e,3.3357,53.1000,250.6795,43.99962,0.0033770,0.13397491,84.3279,02/25.0/2023,2000,H 6.64,0.15
# From MPO 97771
2004 VV75,e,9.9046,21.0957,14.8113,39.67059,0.0039446,0.28596401,0.0078,11/11.0/2004,2000,H 8.7,0.15
# From MPO 74438
2004 VW75,e,23.2890,35.2571,8.3732,39.32315,0.0039970,0.22823673,359.9279,10/22.0/2004,2000,H 8.7,0.15
# From MPO 74438
2004 VX75,e,21.1387,38.2450,8.9404,43.84689,0.0033947,0.12152230,359.9389,10/22.0/2004,2000,H 7.1,0.15
# From MPO 74438
2004 VY75,e,12.9644,226.6137,1.6262,45.53235,0.0032079,0.07799113,179.9797,10/22.0/2004,2000,H 6.9,0.15
# From MPO473096
2004 VZ75,e,4.4670,168.5243,11.8398,39.56052,0.0039611,0.18984088,286.9786,02/25.0/2023,2000,H 6.4,0.15
# From MPO 74438
2004 VA76,e,1.1365,123.1074,309.7491,43.94587,0.0033832,0.00000000,0.0000,10/22.0/2004,2000,H 6.8,0.15
# From MPO732463
2004 VK78,e,1.4649,67.5077,312.5491,48.11242,0.0029534,0.33520462,29.6507,02/25.0/2023,2000,H 7.94,0.15
# From MPO 74438
2004 VL78,e,19.1032,225.4445,183.0741,39.27716,0.0040040,0.23262211,359.9995,11/11.0/2004,2000,H 8.2,0.15
# From MPO 74438
2004 VM78,e,32.0441,238.6211,178.4166,44.35888,0.0033361,0.00000000,0.0000,11/11.0/2004,2000,H 6.9,0.15
# From MPO 74438
2004 VN78,e,3.1115,320.7964,97.2062,39.35412,0.0039923,0.18003107,359.9994,11/11.0/2004,2000,H 8.0,0.15
# From MPO732464
2004 VV130,e,23.8844,46.3646,28.5025,39.61109,0.0039535,0.19165705,5.9663,02/25.0/2023,2000,H 7.50,0.15
# From MPO598880
2004 VX130,e,5.7308,44.3520,292.6910,39.69647,0.0039407,0.21075638,70.2209,02/25.0/2023,2000,H 7.71,0.15
# From MPO732464
2004 VY130,e,10.1890,222.2665,180.7953,39.53818,0.0039644,0.28037234,26.0004,02/25.0/2023,2000,H 8.08,0.15
# From MPO732464
2004 VZ130,e,11.5619,39.9612,335.0468,39.78049,0.0039282,0.28578040,41.1911,02/25.0/2023,2000,H 8.78,0.15
# From MPO598880
2004 VD131,e,3.6418,36.0399,331.2163,46.65729,0.0030926,0.13299320,49.4494,02/25.0/2023,2000,H 6.60,0.15
# From MPO285667
2004 VE131,e,5.1870,219.1030,271.3278,42.46262,0.0035620,0.25790125,323.5449,02/25.0/2023,2000,H 7.6,0.15
# From MPO339383
2004 VF131,e,0.8152,246.4772,65.3952,43.92601,0.0033855,0.21502692,88.4871,02/25.0/2023,2000,H 6.8,0.15
# From MPO708567
2004 VU131,e,0.7669,207.5308,183.5257,45.86535,0.0031731,0.10316114,26.4503,02/25.0/2023,2000,H 7.60,0.15
# From MPO 87643
2004 XW186,e,0.6235,75.2172,288.5342,45.65714,0.0031948,0.04548622,359.9647,12/01.0/2004,2000,H 8.7,0.15
# From MPO 87643
2004 XX186,e,1.7315,93.4183,282.6193,46.90595,0.0030680,0.00000000,0.0000,12/01.0/2004,2000,H 8.6,0.15
# From MPO 87643
2004 XY186,e,21.2159,21.0286,356.1423,39.47281,0.0039743,0.13602703,359.9558,12/01.0/2004,2000,H 9.8,0.15
# From MPO 87643
2004 XZ186,e,11.0532,222.4626,276.5131,39.64804,0.0039479,0.34528632,307.2327,12/01.0/2004,2000,H10.0,0.15
# From MPO598882
2004 XX190,e,1.5764,71.9611,333.2606,45.28707,0.0032340,0.10811722,44.4099,02/25.0/2023,2000,H 6.90,0.15
# From MPO686157
2005 BV49,e,7.9866,116.0959,24.3849,43.49778,0.0034356,0.04145898,8.9633,02/25.0/2023,2000,H 6.93,0.15
# From MPO732467
2005 BW49,e,2.1026,58.8169,122.0351,43.88737,0.0033900,0.07375207,332.4842,02/25.0/2023,2000,H 6.54,0.15
# From MPO623396
2005 CD81,e,21.3907,317.9050,3.0719,39.11057,0.0040296,0.15497550,200.5883,02/25.0/2023,2000,H 7.05,0.15
# From MPO542950
2005 CE81,e,3.0839,103.8232,39.3826,42.49809,0.0035575,0.04257068,14.4806,02/25.0/2023,2000,H 7.4,0.15
# From MPO703159
2005 CF81,e,0.4048,109.6501,357.7644,36.28012,0.0045103,0.06186106,57.4446,02/25.0/2023,2000,H 8.42,0.15
# From MPO473098
2005 CG81,e,26.1937,134.7016,57.0931,53.48629,0.0025197,0.23226073,341.7049,02/25.0/2023,2000,H 6.4,0.15
# From MPO545639
2005 EE296,e,3.3070,341.9814,295.1514,43.92731,0.0033853,0.06933022,248.4797,02/25.0/2023,2000,H 6.7,0.15
# From MPO 77853
2005 EO296,e,0.5864,337.0934,349.6488,45.10737,0.0032534,0.08754192,180.8690,02/19.0/2005,2000,H 6.5,0.15
# From MPO 87661
2005 EP296,e,3.3216,138.7197,17.9314,46.83189,0.0030753,0.00000000,0.1845,04/20.0/2005,2000,H 7.2,0.15
# From MPO 77854
2005 EK298,e,40.1968,149.2445,275.5001,39.55157,0.0039624,0.13133095,71.8415,03/11.0/2005,2000,H 7.5,0.15
# From MPO 77854
2005 ED300,e,1.7641,329.5787,13.1539,43.92251,0.0033859,0.08132904,179.5003,03/11.0/2005,2000,H 7.2,0.15
# From MPO 77854
2005 EJ300,e,21.6801,166.3813,356.0434,43.12254,0.0034805,0.00000000,0.0000,03/11.0/2005,2000,H 8.0,0.15
# From MPO477547
2005 EM303,e,5.6019,113.2719,114.5287,43.33480,0.0034550,0.01495071,353.4275,02/25.0/2023,2000,H 7.6,0.15
# From MPO 77854
2005 EH305,e,7.4716,190.3017,177.0979,44.05566,0.0033706,0.08931956,180.2240,03/11.0/2005,2000,H 6.4,0.15
# From MPO273888
2005 EB318,e,4.4865,166.9712,301.9523,44.84039,0.0032825,0.14263328,100.3948,02/25.0/2023,2000,H 6.7,0.15
# From MPO623398
2005 EC318,e,2.5335,109.2808,284.2937,43.49904,0.0034355,0.03919749,138.0561,02/25.0/2023,2000,H 6.34,0.15
# From MPO703162
2005 EW318,e,1.0620,128.6078,228.3400,44.28221,0.0033447,0.07750101,175.4035,02/25.0/2023,2000,H 6.35,0.15
# From MPO473098
2005 EX318,e,6.6548,100.1667,26.2249,39.30351,0.0040000,0.22161677,59.7195,02/25.0/2023,2000,H 7.0,0.15
# From MPO 77876
2005 GW186,e,3.0477,157.8011,349.5429,43.21302,0.0034696,0.14626060,359.9654,03/31.0/2005,2000,H 6.8,0.15
# From MPO623401
2005 GX186,e,3.7891,159.0000,80.2062,43.69034,0.0034129,0.01446604,316.9134,02/25.0/2023,2000,H 7.25,0.15
# From MPO 77876
2005 GZ186,e,7.5480,36.0326,153.9932,43.82995,0.0033966,0.12884619,359.9659,03/31.0/2005,2000,H 7.0,0.15
# From MPO437949
2005 GA187,e,18.7952,27.8195,284.2034,39.29319,0.0040015,0.21834806,311.2690,02/25.0/2023,2000,H 7.5,0.15
# From MPO377774
2005 GC187,e,2.4034,2.3456,198.6070,43.91901,0.0033863,0.12047189,30.7921,02/25.0/2023,2000,H 7.2,0.15
# From MPO542959
2005 GD187,e,0.7052,354.4087,346.3069,42.79617,0.0035204,0.02501817,191.8236,02/25.0/2023,2000,H 7.3,0.15
# From MPO473099
2005 GF187,e,3.9042,128.9415,135.4892,39.42149,0.0039820,0.25426076,359.6846,02/25.0/2023,2000,H 8.2,0.15
# From MPO 77876
2005 GY206,e,19.5427,155.5011,23.8976,39.71277,0.0039383,0.12409438,359.9568,03/31.0/2005,2000,H 7.7,0.15
# From MPO 77876
2005 GZ206,e,26.8244,41.1006,159.0181,44.74725,0.0032927,0.11172819,359.9566,03/31.0/2005,2000,H 7.2,0.15
# From MPO703165
2005 GV210,e,12.0477,174.8851,258.5674,39.04487,0.0040398,0.17335343,121.6857,02/25.0/2023,2000,H 6.79,0.15
# From MPO 87668
2005 GW210,e,24.7075,37.6928,88.7986,39.67836,0.0039434,0.27044958,53.6001,05/10.0/2005,2000,H 7.5,0.15
# From MPO377775
2005 JZ174,e,6.5255,59.1848,246.4716,42.45727,0.0035627,0.07424095,296.3119,02/25.0/2023,2000,H 6.7,0.15
# From MPO342215
2005 JH177,e,3.2742,117.4922,58.4371,44.32448,0.0033399,0.09026475,48.5741,02/25.0/2023,2000,H 7.0,0.15
# From MPO 87678
2005 JO179,e,2.2275,137.4802,68.1816,43.63294,0.0034197,0.04846155,359.9974,05/10.0/2005,2000,H 6.7,0.15
# From MPO206094
2005 JQ179,e,2.6637,79.6916,310.4666,42.63232,0.0035408,0.03111656,179.9158,05/10.0/2005,2000,H 6.3,0.15
# From MPO198070
2005 JY185,e,2.1439,32.0583,107.7202,44.04627,0.0033716,0.06610835,120.6011,02/25.0/2023,2000,H 6.8,0.15
# From MPO725140
2005 JA186,e,4.2268,25.4876,196.0323,48.22265,0.0029433,0.09372580,24.4886,02/25.0/2023,2000,H 6.61,0.15
# From MPO477548
2005 JB186,e,20.2534,238.4589,38.3573,41.46062,0.0036919,0.10602462,349.4999,02/25.0/2023,2000,H 7.7,0.15
# From MPO473100
2005 JJ186,e,4.1494,63.8354,239.6173,44.68586,0.0032995,0.09622008,336.2649,02/25.0/2023,2000,H 6.6,0.15
# From MPO473100
2005 JK186,e,27.2856,63.2143,229.9619,47.40029,0.0030202,0.24666313,350.5394,02/25.0/2023,2000,H 6.6,0.15
# From MPO264941
2005 LA54,e,7.9297,70.6989,201.0362,44.30517,0.0033421,0.06695761,355.2059,02/25.0/2023,2000,H 6.5,0.15
# From MPO473100
2005 LB54,e,3.0059,96.0733,175.3014,43.66849,0.0034155,0.04660624,356.2399,02/25.0/2023,2000,H 5.8,0.15
# From MPO639891
2005 NU125,e,37.1351,297.2809,359.5132,81.92254,0.0013292,0.51397148,9.0820,02/25.0/2023,2000,H 6.55,0.15
# From MPO713716
2005 NV125,e,13.3361,301.9974,328.7611,44.12400,0.0033627,0.22601530,41.3507,02/25.0/2023,2000,H 6.55,0.15
# From MPO725144
2005 PK21,e,5.4002,292.1467,60.7838,44.46020,0.0033247,0.12497855,340.1451,02/25.0/2023,2000,H 7.13,0.15
# From MPO303312
2005 PL21,e,4.7282,38.6591,215.1115,46.86574,0.0030720,0.14829265,68.7808,02/25.0/2023,2000,H 6.6,0.15
# From MPO 87719
2005 PM21,e,28.4844,350.7767,349.7072,43.67821,0.0034143,0.13500539,359.9662,07/29.0/2005,2000,H 6.6,0.15
# From MPO 87719
